{
"type": "FeatureCollection",
"crs": { "type": "name", "properties": { "name": "urn:ogc:def:crs:OGC:1.3:CRS84" } },
"features": [
{ "type": "Feature", "properties": { "zone_id": "Z0" }, "geometry": { "type": "Polygon", "coordinates": [ [ [ 16.992847958523583, 48.179869379227014 ], [ 16.992847958523583, 48.168294902965862 ], [ 16.9922168, 48.1688164 ], [ 16.9915482, 48.1693688 ], [ 16.9871839, 48.170413 ], [ 16.9867631, 48.1705137 ], [ 16.9804103, 48.1699298 ], [ 16.9756588, 48.1732541 ], [ 16.9756802, 48.1767455 ], [ 16.9760664, 48.1795571 ], [ 16.976174816901271, 48.179869379227014 ], [ 16.986774502391317, 48.179869379227014 ], [ 16.9849302, 48.1792235 ], [ 16.985348, 48.17877 ], [ 16.9852291, 48.1783848 ], [ 16.9861221, 48.1779937 ], [ 16.9861369, 48.1779789 ], [ 16.9879168, 48.1772046 ], [ 16.9892525, 48.1781663 ], [ 16.9891518, 48.1789173 ], [ 16.9915043, 48.1787295 ], [ 16.9913343, 48.1796187 ], [ 16.99238799216781, 48.179869379227014 ], [ 16.992847958523583, 48.179869379227014 ] ] ] } },
{ "type": "Feature", "properties": { "zone_id": "Z1" }, "geometry": { "type": "MultiPolygon", "coordinates": [ [ [ [ 16.992847958523583, 48.179869379227014 ], [ 16.99238799216781, 48.179869379227014 ], [ 16.992847958523583, 48.179978807396907 ], [ 16.992847958523583, 48.179869379227014 ] ] ], [ [ [ 16.976174816901271, 48.179869379227014 ], [ 16.977335, 48.183211 ], [ 16.9790016, 48.183362 ], [ 16.981714, 48.182607 ], [ 16.9829128, 48.181718699999983 ], [ 16.983152, 48.181135499999989 ], [ 16.9831037, 48.180888699999983 ], [ 16.9835151, 48.1803872 ], [ 16.984857, 48.180593899999984 ], [ 16.9858915, 48.1803815 ], [ 16.9867468, 48.1802279 ], [ 16.9871078, 48.1799861 ], [ 16.986774502391317, 48.179869379227014 ], [ 16.976174816901271, 48.179869379227014 ] ] ], [ [ [ 16.975418525985553, 48.197835976484626 ], [ 16.975446, 48.197649 ], [ 16.974861, 48.197562 ], [ 16.9760833, 48.1958081 ], [ 16.976762, 48.1959047 ], [ 16.9777466, 48.1953997 ], [ 16.9778993, 48.1936378 ], [ 16.9781845, 48.1932706 ], [ 16.9794821, 48.1930674 ], [ 16.9794764, 48.1927312 ], [ 16.9800921, 48.1922098 ], [ 16.9805587, 48.191287 ], [ 16.9804092, 48.190406099999983 ], [ 16.979097, 48.190049 ], [ 16.979159, 48.189703 ], [ 16.979264, 48.189285 ], [ 16.9797907, 48.188675099999983 ], [ 16.978859, 48.18826 ], [ 16.978832, 48.187655 ], [ 16.97874, 48.18765 ], [ 16.978523, 48.187365 ], [ 16.9780532, 48.1873167 ], [ 16.9773145, 48.1873163 ], [ 16.9773263, 48.1877613 ], [ 16.9772619, 48.189417099999986 ], [ 16.977188, 48.1900985 ], [ 16.9770603, 48.190531599999986 ], [ 16.9769925, 48.1907359 ], [ 16.976881, 48.190971 ], [ 16.9766316, 48.1914431 ], [ 16.9764197, 48.1917721 ], [ 16.9758859, 48.1925318 ], [ 16.9756365, 48.1929808 ], [ 16.9753602, 48.1934492 ], [ 16.9749927, 48.1940536 ], [ 16.9742304, 48.195290199999988 ], [ 16.9736009, 48.1962962 ], [ 16.9732748, 48.196811399999987 ], [ 16.973079, 48.1971115 ], [ 16.9727572, 48.1976061 ], [ 16.972605154953232, 48.197835976484626 ], [ 16.975418525985553, 48.197835976484626 ] ] ] ] } },
{ "type": "Feature", "properties": { "zone_id": "Z2" }, "geometry": { "type": "Polygon", "coordinates": [ [ [ 16.992847958523583, 48.201763837341417 ], [ 16.989522, 48.2016665 ], [ 16.9894357, 48.2003898 ], [ 16.986918, 48.2002411 ], [ 16.9868745, 48.1997808 ], [ 16.9842838, 48.2002376 ], [ 16.9838105, 48.20019 ], [ 16.9833386, 48.200263399999983 ], [ 16.9829768, 48.2004528 ], [ 16.9823986, 48.2008346 ], [ 16.9821831, 48.200947499999984 ], [ 16.9775679, 48.2017969 ], [ 16.9769763, 48.201552 ], [ 16.9758595, 48.2015925 ], [ 16.9736814, 48.2017412 ], [ 16.9735657, 48.2020072 ], [ 16.9728792, 48.2024782 ], [ 16.9724506, 48.2023339 ], [ 16.9714796, 48.2026611 ], [ 16.9711565, 48.2022513 ], [ 16.9711388, 48.201249299999986 ], [ 16.9714499, 48.200720099999984 ], [ 16.9719045, 48.2002679 ], [ 16.972492, 48.2002945 ], [ 16.9733416, 48.199598499999986 ], [ 16.9725143, 48.1989723 ], [ 16.9729067, 48.198486199999984 ], [ 16.9735121, 48.1989287 ], [ 16.975374, 48.198139 ], [ 16.975418525985553, 48.197835976484626 ], [ 16.972605154953232, 48.197835976484626 ], [ 16.9723788, 48.1981782 ], [ 16.9719251, 48.1989337 ], [ 16.9717397, 48.1992074 ], [ 16.9710139, 48.2004684 ], [ 16.9709091, 48.2006992 ], [ 16.9707445, 48.2011289 ], [ 16.9706684, 48.2012999 ], [ 16.9705739, 48.2015121 ], [ 16.9704964, 48.2018686 ], [ 16.9704376, 48.2021108 ], [ 16.9703833, 48.2024872 ], [ 16.9703296, 48.202967 ], [ 16.97023, 48.2037996 ], [ 16.9701956, 48.2041352 ], [ 16.9701294, 48.2043699 ], [ 16.9701052, 48.2045408 ], [ 16.9700843, 48.2046963 ], [ 16.9701195, 48.2047367 ], [ 16.9700684, 48.205072499999986 ], [ 16.9686676, 48.210002 ], [ 16.9694608, 48.210693099999986 ], [ 16.9710565, 48.2151797 ], [ 16.9698133, 48.2157629 ], [ 16.969877181095288, 48.215796275257262 ], [ 16.992847958523583, 48.215796275257262 ], [ 16.992847958523583, 48.212775561776766 ], [ 16.9912886, 48.2123163 ], [ 16.9888765, 48.2153179 ], [ 16.9849803, 48.2147066 ], [ 16.9846284, 48.2156525 ], [ 16.9804707, 48.2146562 ], [ 16.9815158, 48.213150899999988 ], [ 16.9821169, 48.2122619 ], [ 16.9832837, 48.210635499999988 ], [ 16.9876252, 48.206245399999986 ], [ 16.9906196, 48.2052148 ], [ 16.9910573, 48.2057534 ], [ 16.992847958523583, 48.205506912827765 ], [ 16.992847958523583, 48.201763837341417 ] ] ] } },
{ "type": "Feature", "properties": { "zone_id": "Z3" }, "geometry": { "type": "Polygon", "coordinates": [ [ [ 16.992847958523583, 48.215796275257262 ], [ 16.969877181095288, 48.215796275257262 ], [ 16.972626, 48.2172324 ], [ 16.9714425, 48.21835 ], [ 16.9706368, 48.2191107 ], [ 16.9658985, 48.2263312 ], [ 16.969822, 48.2285546 ], [ 16.9751831, 48.2299831 ], [ 16.9753706, 48.2302698 ], [ 16.973097354306422, 48.23375027598879 ], [ 16.992847958523583, 48.23375027598879 ], [ 16.992847958523583, 48.225489175692125 ], [ 16.9868684, 48.2235131 ], [ 16.9809255, 48.2205734 ], [ 16.9819473, 48.2191084 ], [ 16.9822399, 48.2191746 ], [ 16.9834974, 48.2168914 ], [ 16.992847958523583, 48.218273797670193 ], [ 16.992847958523583, 48.215796275257262 ] ] ] } },
{ "type": "Feature", "properties": { "zone_id": "Z4" }, "geometry": { "type": "Polygon", "coordinates": [ [ [ 16.992847958523583, 48.23375027598879 ], [ 16.973097354306422, 48.23375027598879 ], [ 16.9721827, 48.2351506 ], [ 16.9716332, 48.2363345 ], [ 16.9756965, 48.2382898 ], [ 16.9771917, 48.2390693 ], [ 16.9779224, 48.2393727 ], [ 16.9779567, 48.2399185 ], [ 16.9847984, 48.2428135 ], [ 16.9881334, 48.2453942 ], [ 16.992847958523583, 48.239054270093185 ], [ 16.992847958523583, 48.23375027598879 ] ] ] } },
{ "type": "Feature", "properties": { "zone_id": "Z5" }, "geometry": { "type": "Polygon", "coordinates": [ [ [ 17.001532234899184, 48.161896483042902 ], [ 17.0041745, 48.1602877 ], [ 17.0080162, 48.1584402 ], [ 17.0085565, 48.1583972 ], [ 17.0089339, 48.1583872 ], [ 17.0094706, 48.158373 ], [ 17.0100479, 48.158395 ], [ 17.0101941, 48.1585873 ], [ 17.0102718, 48.1586043 ], [ 17.0103711, 48.1585158 ], [ 17.0103979, 48.1583091 ], [ 17.011098, 48.1582205 ], [ 17.0112509, 48.1584066 ], [ 17.0128667, 48.1581567 ], [ 17.0131727, 48.1579826 ], [ 17.0132805, 48.1577474 ], [ 17.0139304, 48.1575424 ], [ 17.0146801, 48.1572857 ], [ 17.0157486, 48.1568291 ], [ 17.0154502, 48.1565597 ], [ 17.0103416, 48.1575957 ], [ 17.0096021, 48.1577456 ], [ 17.0071437, 48.1586937 ], [ 17.0080384, 48.1579977 ], [ 17.0066114, 48.1577185 ], [ 17.003425, 48.1593789 ], [ 17.000544213401792, 48.161896483042902 ], [ 17.001532234899184, 48.161896483042902 ] ] ] } },
{ "type": "Feature", "properties": { "zone_id": "Z6" }, "geometry": { "type": "Polygon", "coordinates": [ [ [ 16.992847958523583, 48.179869379227014 ], [ 16.993454772542577, 48.179869379227014 ], [ 16.993544, 48.179698 ], [ 16.9938509, 48.178663699999987 ], [ 16.994135, 48.1784964 ], [ 16.9948094, 48.178442 ], [ 16.9950652, 48.1785301 ], [ 16.9951265, 48.1785345 ], [ 16.9956631, 48.178552 ], [ 16.9962145, 48.1778809 ], [ 16.9973491, 48.1783969 ], [ 16.9980956, 48.178191899999987 ], [ 16.9980805, 48.1771139 ], [ 16.9983933, 48.1759476 ], [ 16.9966269, 48.1755204 ], [ 16.9951751, 48.174375 ], [ 16.9950319, 48.174262 ], [ 16.9956994, 48.1736831 ], [ 16.9954364, 48.1730869 ], [ 16.9947744, 48.1724819 ], [ 16.9946294, 48.1720695 ], [ 16.9946632, 48.1715122 ], [ 16.9950406, 48.1707956 ], [ 16.9960535, 48.1706005 ], [ 16.9969462, 48.1702538 ], [ 16.9971351, 48.1696769 ], [ 16.997736, 48.1690388 ], [ 16.9991353, 48.1690363 ], [ 17.0003887, 48.1683957 ], [ 17.001528, 48.1685276 ], [ 17.0017201, 48.1681535 ], [ 17.0025229, 48.1680574 ], [ 17.0028718, 48.1679534 ], [ 17.0029916, 48.1679137 ], [ 17.0031077, 48.1679745 ], [ 17.003539, 48.167953 ], [ 17.0036223, 48.1683255 ], [ 17.004405, 48.168376 ], [ 17.004851, 48.168358 ], [ 17.004166, 48.166489 ], [ 17.003603, 48.16604 ], [ 17.0035711, 48.1657126 ], [ 17.0035549, 48.1655461 ], [ 17.0034432, 48.1643987 ], [ 17.0013407, 48.1620131 ], [ 17.001532234899184, 48.161896483042902 ], [ 17.000544213401792, 48.161896483042902 ], [ 16.9997235, 48.1626137 ], [ 16.999415, 48.1628686 ], [ 16.9955588, 48.166055 ], [ 16.992847958523583, 48.168294902965862 ], [ 16.992847958523583, 48.179869379227014 ] ] ] } },
{ "type": "Feature", "properties": { "zone_id": "Z7" }, "geometry": { "type": "MultiPolygon", "coordinates": [ [ [ [ 17.019797417047169, 48.183306516406859 ], [ 17.0189835, 48.183274 ], [ 17.0180657, 48.1838498 ], [ 17.0173519, 48.1842977 ], [ 17.0160404, 48.1851205 ], [ 17.0152499, 48.1859008 ], [ 17.016492, 48.186501 ], [ 17.0185083, 48.186585 ], [ 17.019797417047169, 48.186990664596202 ], [ 17.019797417047169, 48.183306516406859 ] ] ], [ [ [ 16.992847958523583, 48.179869379227014 ], [ 16.992847958523583, 48.179978807396907 ], [ 16.9933372, 48.1800952 ], [ 16.993454772542577, 48.179869379227014 ], [ 16.992847958523583, 48.179869379227014 ] ] ] ] } },
{ "type": "Feature", "properties": { "zone_id": "Z8" }, "geometry": { "type": "MultiPolygon", "coordinates": [ [ [ [ 17.019797417047169, 48.200701512514463 ], [ 17.0141036, 48.1998455 ], [ 17.0071299, 48.199588 ], [ 17.0065505, 48.2048653 ], [ 17.010327, 48.215765 ], [ 17.0154834, 48.2153655 ], [ 17.0163631, 48.212391499999988 ], [ 17.019797417047169, 48.210408076529248 ], [ 17.019797417047169, 48.200701512514463 ] ] ], [ [ [ 16.992847958523583, 48.205506912827765 ], [ 16.9988777, 48.2046769 ], [ 16.9994154, 48.2050362 ], [ 17.0018728, 48.2049429 ], [ 17.0065126, 48.2045121 ], [ 17.006557, 48.2041612 ], [ 17.0023825, 48.2041542 ], [ 17.002325, 48.203731 ], [ 17.0031, 48.203561 ], [ 17.00298, 48.202872 ], [ 16.9981122, 48.2019179 ], [ 16.992847958523583, 48.201763837341417 ], [ 16.992847958523583, 48.205506912827765 ] ] ], [ [ [ 16.992847958523583, 48.215796275257262 ], [ 16.99465139226632, 48.215796275257262 ], [ 16.9960615, 48.213722 ], [ 16.992847958523583, 48.212775561776766 ], [ 16.992847958523583, 48.215796275257262 ] ] ] ] } },
{ "type": "Feature", "properties": { "zone_id": "Z9" }, "geometry": { "type": "MultiPolygon", "coordinates": [ [ [ [ 16.992847958523583, 48.23375027598879 ], [ 16.996791715842583, 48.23375027598879 ], [ 17.0009444, 48.228164699999986 ], [ 16.992847958523583, 48.225489175692125 ], [ 16.992847958523583, 48.23375027598879 ] ] ], [ [ [ 16.992847958523583, 48.215796275257262 ], [ 16.992847958523583, 48.218273797670193 ], [ 16.9929562, 48.218289799999987 ], [ 16.99465139226632, 48.215796275257262 ], [ 16.992847958523583, 48.215796275257262 ] ] ] ] } },
{ "type": "Feature", "properties": { "zone_id": "Z10" }, "geometry": { "type": "Polygon", "coordinates": [ [ [ 16.992847958523583, 48.23375027598879 ], [ 16.992847958523583, 48.239054270093185 ], [ 16.996791715842583, 48.23375027598879 ], [ 16.992847958523583, 48.23375027598879 ] ] ] } },
{ "type": "Feature", "properties": { "zone_id": "Z11" }, "geometry": { "type": "Polygon", "coordinates": [ [ [ 17.046746875570754, 48.161896483042902 ], [ 17.046746875570754, 48.147437617661339 ], [ 17.043329, 48.1485175 ], [ 17.0353366, 48.1507159 ], [ 17.0365977, 48.1529871 ], [ 17.037997, 48.1528988 ], [ 17.0385068, 48.153712599999984 ], [ 17.0393093, 48.1539111 ], [ 17.0396062, 48.1544118 ], [ 17.0406495, 48.154393 ], [ 17.0405751, 48.1546918 ], [ 17.0406776, 48.1557166 ], [ 17.0416832, 48.1556413 ], [ 17.0420563, 48.1564352 ], [ 17.0429087, 48.1578805 ], [ 17.0414689, 48.1584428 ], [ 17.0407676, 48.1598057 ], [ 17.0417201, 48.160018 ], [ 17.0419782, 48.1598814 ], [ 17.0430355, 48.1584824 ], [ 17.0443549, 48.1581805 ], [ 17.0443495, 48.1587745 ], [ 17.0435988, 48.1589966 ], [ 17.0434425, 48.1591487 ], [ 17.0436426, 48.1594774 ], [ 17.043649, 48.1595613 ], [ 17.0437661, 48.1597021 ], [ 17.0440058, 48.1597115 ], [ 17.0443547, 48.1597807 ], [ 17.044202, 48.160089 ], [ 17.0446363, 48.1602591 ], [ 17.0446013, 48.1603366 ], [ 17.0451742, 48.1606241 ], [ 17.0452659, 48.161247 ], [ 17.044020756724677, 48.161896483042902 ], [ 17.046746875570754, 48.161896483042902 ] ] ] } },
{ "type": "Feature", "properties": { "zone_id": "Z12" }, "geometry": { "type": "Polygon", "coordinates": [ [ [ 17.046746875570754, 48.179869379227014 ], [ 17.046746875570754, 48.161896483042902 ], [ 17.044020756724677, 48.161896483042902 ], [ 17.0432299, 48.162309 ], [ 17.0413954, 48.1626303 ], [ 17.0413231, 48.1629186 ], [ 17.0413039, 48.1629951 ], [ 17.0420545, 48.1629471 ], [ 17.0404478, 48.1638434 ], [ 17.0407048, 48.1653249 ], [ 17.0411558, 48.165054499999989 ], [ 17.0413862, 48.1653555 ], [ 17.0429228, 48.1646888 ], [ 17.042739, 48.165949199999986 ], [ 17.0441072, 48.1668978 ], [ 17.0410648, 48.1681705 ], [ 17.042325, 48.169347099999989 ], [ 17.0429324, 48.169231 ], [ 17.0449595, 48.1688433 ], [ 17.0447037, 48.1694548 ], [ 17.039744, 48.1718151 ], [ 17.0406148, 48.1726126 ], [ 17.0443295, 48.1725881 ], [ 17.0438731, 48.1750497 ], [ 17.0396238, 48.177121 ], [ 17.0376014, 48.1763118 ], [ 17.0355978, 48.1775911 ], [ 17.0361342, 48.177944 ], [ 17.0355306, 48.1782429 ], [ 17.0336563, 48.1769483 ], [ 17.0307037, 48.1777441 ], [ 17.0302735, 48.1797142 ], [ 17.0291042, 48.179754499999987 ], [ 17.0275792, 48.1795652 ], [ 17.0268886, 48.1796571 ], [ 17.026950493974237, 48.179869379227014 ], [ 17.046746875570754, 48.179869379227014 ] ] ] } },
{ "type": "Feature", "properties": { "zone_id": "Z13" }, "geometry": { "type": "Polygon", "coordinates": [ [ [ 17.046746875570754, 48.197835976484626 ], [ 17.046746875570754, 48.179869379227014 ], [ 17.026950493974237, 48.179869379227014 ], [ 17.0271155, 48.1804353 ], [ 17.0293676, 48.1804693 ], [ 17.0312717, 48.1812798 ], [ 17.0304796, 48.18224 ], [ 17.025295, 48.181952 ], [ 17.0237469, 48.1834643 ], [ 17.019797417047169, 48.183306516406859 ], [ 17.019797417047169, 48.186990664596202 ], [ 17.0207585, 48.1872931 ], [ 17.0224685, 48.187939 ], [ 17.0227233, 48.1886311 ], [ 17.023316, 48.1885433 ], [ 17.0232211, 48.1890714 ], [ 17.0233915, 48.1902318 ], [ 17.0227885, 48.1902089 ], [ 17.0227311, 48.190441399999983 ], [ 17.0226828, 48.1906368 ], [ 17.0226128, 48.1909205 ], [ 17.0225475, 48.1911849 ], [ 17.0224146, 48.191723099999983 ], [ 17.0227134, 48.1919598 ], [ 17.0228108, 48.1922016 ], [ 17.0230088, 48.1944697 ], [ 17.0242149, 48.1971337 ], [ 17.0256939, 48.1976601 ], [ 17.0281874, 48.1977459 ], [ 17.0285959, 48.1977648 ], [ 17.028538224568806, 48.197835976484626 ], [ 17.046746875570754, 48.197835976484626 ] ] ] } },
{ "type": "Feature", "properties": { "zone_id": "Z14" }, "geometry": { "type": "Polygon", "coordinates": [ [ [ 17.046746875570754, 48.197835976484626 ], [ 17.028538224568806, 48.197835976484626 ], [ 17.0255191, 48.2015617 ], [ 17.019797417047169, 48.200701512514463 ], [ 17.019797417047169, 48.210408076529248 ], [ 17.0247316, 48.2075583 ], [ 17.0292098, 48.2110573 ], [ 17.0359994, 48.206475 ], [ 17.042299, 48.2096559 ], [ 17.0400889, 48.2133737 ], [ 17.0446273, 48.2133789 ], [ 17.046746875570754, 48.211584502212318 ], [ 17.046746875570754, 48.197835976484626 ] ] ] } },
{ "type": "Feature", "properties": { "zone_id": "Z15" }, "geometry": { "type": "MultiPolygon", "coordinates": [ [ [ [ 17.046746875570754, 48.223532695352603 ], [ 17.0464892, 48.2233546 ], [ 17.0460418, 48.223082699999985 ], [ 17.0435288, 48.2237757 ], [ 17.0434366, 48.2236657 ], [ 17.0432756, 48.2234523 ], [ 17.0429178, 48.2229354 ], [ 17.04174, 48.223243499999988 ], [ 17.0410314, 48.2219082 ], [ 17.0408578, 48.2217984 ], [ 17.0403, 48.2217008 ], [ 17.0399171, 48.2216356 ], [ 17.0397568, 48.2216013 ], [ 17.0388281, 48.2209697 ], [ 17.0370387, 48.2207445 ], [ 17.0369849, 48.221129 ], [ 17.0370926, 48.2217444 ], [ 17.0371069, 48.2223647 ], [ 17.0371918, 48.2227177 ], [ 17.0372413, 48.222992 ], [ 17.0373232, 48.2232985 ], [ 17.0374457, 48.2234516 ], [ 17.0385115, 48.2257214 ], [ 17.0400278, 48.2289796 ], [ 17.0408439, 48.230497199999988 ], [ 17.041136, 48.230706699999985 ], [ 17.0407069, 48.2312856 ], [ 17.0400524, 48.2317126 ], [ 17.0387059, 48.2325702 ], [ 17.036821, 48.233647 ], [ 17.0362933, 48.2332724 ], [ 17.033993836312504, 48.23375027598879 ], [ 17.046746875570754, 48.23375027598879 ], [ 17.046746875570754, 48.225891789836211 ], [ 17.0460335, 48.2256955 ], [ 17.0464836, 48.2253065 ], [ 17.046746875570754, 48.225059213400215 ], [ 17.046746875570754, 48.223532695352603 ] ] ], [ [ [ 17.033591595221441, 48.23375027598879 ], [ 17.0330545, 48.2326453 ], [ 17.032786, 48.2319992 ], [ 17.0325583, 48.2313535 ], [ 17.0322847, 48.2318484 ], [ 17.0314465, 48.2328248 ], [ 17.0311167, 48.233292199999987 ], [ 17.0300994, 48.2331229 ], [ 17.0283498, 48.2323834 ], [ 17.0274725, 48.2330505 ], [ 17.027589, 48.2337332 ], [ 17.0295332, 48.2336507 ], [ 17.0312157, 48.2335865 ], [ 17.031262462697544, 48.23375027598879 ], [ 17.033591595221441, 48.23375027598879 ] ] ] ] } },
{ "type": "Feature", "properties": { "zone_id": "Z16" }, "geometry": { "type": "MultiPolygon", "coordinates": [ [ [ [ 17.046746875570754, 48.23375027598879 ], [ 17.033993836312504, 48.23375027598879 ], [ 17.0336285, 48.2338262 ], [ 17.033591595221441, 48.23375027598879 ], [ 17.031262462697544, 48.23375027598879 ], [ 17.0312816, 48.2338173 ], [ 17.0314448, 48.234047 ], [ 17.0291526, 48.2358967 ], [ 17.0289698, 48.236021 ], [ 17.0287194, 48.2361301 ], [ 17.0283512, 48.2362174 ], [ 17.0278614, 48.2362703 ], [ 17.0276227, 48.2362509 ], [ 17.0241767, 48.2362384 ], [ 17.023164, 48.2360752 ], [ 17.0222918, 48.2358207 ], [ 17.0215933, 48.2355662 ], [ 17.0212759, 48.2360231 ], [ 17.0212703, 48.2360865 ], [ 17.0212066, 48.236184 ], [ 17.0211613, 48.2361732 ], [ 17.0211121, 48.2361667 ], [ 17.020946, 48.2370552 ], [ 17.0206849, 48.238677899999985 ], [ 17.0232897, 48.239305 ], [ 17.0244401, 48.2396158 ], [ 17.0252497, 48.2399181 ], [ 17.0249724, 48.2400416 ], [ 17.0249708, 48.2401249 ], [ 17.0249539, 48.2410024 ], [ 17.0249859, 48.2415249 ], [ 17.0250472, 48.2418397 ], [ 17.0250655, 48.2419334 ], [ 17.0257603, 48.2419158 ], [ 17.0272652, 48.2419642 ], [ 17.0279587, 48.2419772 ], [ 17.0280709, 48.2420807 ], [ 17.0279875, 48.242810599999984 ], [ 17.0272707, 48.2451658 ], [ 17.0322149, 48.24463 ], [ 17.0319212, 48.2453571 ], [ 17.0322084, 48.2453985 ], [ 17.0325364, 48.2445751 ], [ 17.0332673, 48.2443995 ], [ 17.0336805, 48.2444134 ], [ 17.034148, 48.2444263 ], [ 17.0344847, 48.2444364 ], [ 17.0345025, 48.2447983 ], [ 17.0344431, 48.2452649 ], [ 17.0343929, 48.2456833 ], [ 17.034362, 48.2461034 ], [ 17.0345526, 48.2461101 ], [ 17.0348798, 48.246120799999986 ], [ 17.0354203, 48.2447847 ], [ 17.0384139, 48.2449383 ], [ 17.0387557, 48.245675199999987 ], [ 17.0387998, 48.2457711 ], [ 17.04479, 48.245792899999984 ], [ 17.046746875570754, 48.245900813370739 ], [ 17.046746875570754, 48.23375027598879 ] ] ], [ [ [ 17.046746875570754, 48.251697979125382 ], [ 17.046746875570754, 48.245951549191048 ], [ 17.0467328, 48.2460317 ], [ 17.046193, 48.246581 ], [ 17.04594, 48.246922 ], [ 17.0448156, 48.249291899999989 ], [ 17.0447146, 48.2495777 ], [ 17.0444415, 48.250351 ], [ 17.0456, 48.2510745 ], [ 17.0454026, 48.2516446 ], [ 17.045590211239638, 48.251697979125382 ], [ 17.046746875570754, 48.251697979125382 ] ] ] ] } },
{ "type": "Feature", "properties": { "zone_id": "Z17" }, "geometry": { "type": "Polygon", "coordinates": [ [ [ 17.07369633409434, 48.143917287493089 ], [ 17.07369633409434, 48.143150209302135 ], [ 17.070194, 48.1439074 ], [ 17.070184690862391, 48.143917287493089 ], [ 17.07369633409434, 48.143917287493089 ] ] ] } },
{ "type": "Feature", "properties": { "zone_id": "Z18" }, "geometry": { "type": "Polygon", "coordinates": [ [ [ 17.046746875570754, 48.161896483042902 ], [ 17.07369633409434, 48.161896483042902 ], [ 17.07369633409434, 48.143917287493089 ], [ 17.070184690862391, 48.143917287493089 ], [ 17.0680911, 48.146140899999985 ], [ 17.0575769, 48.1464272 ], [ 17.0574346, 48.1464197 ], [ 17.0528917, 48.1461812 ], [ 17.0510323, 48.1460836 ], [ 17.046746875570754, 48.147437617661339 ], [ 17.046746875570754, 48.161896483042902 ] ] ] } },
{ "type": "Feature", "properties": { "zone_id": "Z19" }, "geometry": { "type": "Polygon", "coordinates": [ [ [ 17.046746875570754, 48.161896483042902 ], [ 17.046746875570754, 48.179869379227014 ], [ 17.07369633409434, 48.179869379227014 ], [ 17.07369633409434, 48.161896483042902 ], [ 17.046746875570754, 48.161896483042902 ] ] ] } },
{ "type": "Feature", "properties": { "zone_id": "Z20" }, "geometry": { "type": "Polygon", "coordinates": [ [ [ 17.07369633409434, 48.179869379227014 ], [ 17.046746875570754, 48.179869379227014 ], [ 17.046746875570754, 48.197835976484626 ], [ 17.060718481994083, 48.197835976484626 ], [ 17.0726434, 48.1891094 ], [ 17.0727383, 48.18904 ], [ 17.07369633409434, 48.188338849091359 ], [ 17.07369633409434, 48.179869379227014 ] ] ] } },
{ "type": "Feature", "properties": { "zone_id": "Z21" }, "geometry": { "type": "Polygon", "coordinates": [ [ [ 17.046746875570754, 48.197835976484626 ], [ 17.046746875570754, 48.211584502212318 ], [ 17.0564396, 48.203378 ], [ 17.058285, 48.1996166 ], [ 17.060718481994083, 48.197835976484626 ], [ 17.046746875570754, 48.197835976484626 ] ] ] } },
{ "type": "Feature", "properties": { "zone_id": "Z22" }, "geometry": { "type": "MultiPolygon", "coordinates": [ [ [ [ 17.046746875570754, 48.23375027598879 ], [ 17.054995070279741, 48.23375027598879 ], [ 17.0533994, 48.2329357 ], [ 17.052445, 48.2323865 ], [ 17.0518398, 48.2318623 ], [ 17.052007, 48.2314661 ], [ 17.0516779, 48.2314518 ], [ 17.0505239, 48.2310957 ], [ 17.0494238, 48.2306322 ], [ 17.0487051, 48.2301716 ], [ 17.0479757, 48.2299902 ], [ 17.0473567, 48.2281593 ], [ 17.048036, 48.227878299999986 ], [ 17.0480776, 48.2277546 ], [ 17.0481366, 48.2276898 ], [ 17.049758, 48.227036 ], [ 17.0509866, 48.2268101 ], [ 17.051519, 48.226829 ], [ 17.0534494, 48.2275026 ], [ 17.0559065, 48.2277397 ], [ 17.0558101, 48.2272172 ], [ 17.0549276, 48.2268079 ], [ 17.0542159, 48.2254992 ], [ 17.052432, 48.225284199999983 ], [ 17.0522152, 48.2254213 ], [ 17.050696, 48.2251463 ], [ 17.05001, 48.2247447 ], [ 17.0496017, 48.2248395 ], [ 17.0472397, 48.226299 ], [ 17.0469617, 48.2259509 ], [ 17.046746875570754, 48.225891789836211 ], [ 17.046746875570754, 48.23375027598879 ] ] ], [ [ [ 17.046746875570754, 48.225059213400215 ], [ 17.0473712, 48.2244728 ], [ 17.0476856, 48.2241815 ], [ 17.046746875570754, 48.223532695352603 ], [ 17.046746875570754, 48.225059213400215 ] ] ] ] } },
{ "type": "Feature", "properties": { "zone_id": "Z23" }, "geometry": { "type": "Polygon", "coordinates": [ [ [ 17.07369633409434, 48.247796222892966 ], [ 17.0724597, 48.2477248 ], [ 17.0710208, 48.2466585 ], [ 17.0709996, 48.2460228 ], [ 17.0693271, 48.2417362 ], [ 17.0678401, 48.2420886 ], [ 17.065608, 48.242663 ], [ 17.0613657, 48.2427841 ], [ 17.0605126, 48.2426971 ], [ 17.0598809, 48.2426957 ], [ 17.0593632, 48.2428027 ], [ 17.0597309, 48.2417884 ], [ 17.0575208, 48.2411474 ], [ 17.0547241, 48.2403165 ], [ 17.0544287, 48.2401291 ], [ 17.0565914, 48.239061 ], [ 17.0567252, 48.2382009 ], [ 17.056658, 48.2377497 ], [ 17.0586698, 48.2366809 ], [ 17.0580438, 48.235991 ], [ 17.0576667, 48.2354443 ], [ 17.0559779, 48.234274499999984 ], [ 17.0555204, 48.2339994 ], [ 17.0553154, 48.2339138 ], [ 17.054995070279741, 48.23375027598879 ], [ 17.046746875570754, 48.23375027598879 ], [ 17.046746875570754, 48.245900813370739 ], [ 17.0467557, 48.2459013 ], [ 17.046746875570754, 48.245951549191048 ], [ 17.046746875570754, 48.251697979125382 ], [ 17.063204632762567, 48.251697979125382 ], [ 17.063275, 48.2516705 ], [ 17.063345353486241, 48.251697979125382 ], [ 17.069156204417311, 48.251697979125382 ], [ 17.0686959, 48.2502673 ], [ 17.0697498, 48.2501978 ], [ 17.0700555, 48.250286699999982 ], [ 17.0711879, 48.2505877 ], [ 17.0711982, 48.2504175 ], [ 17.0713243, 48.2502406 ], [ 17.0716659, 48.250183 ], [ 17.0724642, 48.250296 ], [ 17.0733769, 48.2503448 ], [ 17.07369633409434, 48.250376890181037 ], [ 17.07369633409434, 48.247796222892966 ] ] ] } },
{ "type": "Feature", "properties": { "zone_id": "Z24" }, "geometry": { "type": "Polygon", "coordinates": [ [ [ 17.100645792617925, 48.10793999655111 ], [ 17.100645792617925, 48.096988852488124 ], [ 17.0970375, 48.1017955 ], [ 17.091995, 48.1059509 ], [ 17.0905355, 48.1060358 ], [ 17.088039615933841, 48.10793999655111 ], [ 17.100645792617925, 48.10793999655111 ] ] ] } },
{ "type": "Feature", "properties": { "zone_id": "Z25" }, "geometry": { "type": "Polygon", "coordinates": [ [ [ 17.100645792617925, 48.125931792140676 ], [ 17.100645792617925, 48.10793999655111 ], [ 17.088039615933841, 48.10793999655111 ], [ 17.0872099, 48.108573 ], [ 17.0844097, 48.1114978 ], [ 17.0833631, 48.1127547 ], [ 17.0838307, 48.1132117 ], [ 17.0846148, 48.115507099999988 ], [ 17.0837748, 48.1155864 ], [ 17.084341, 48.1167229 ], [ 17.0838871, 48.1182637 ], [ 17.0839379, 48.1185374 ], [ 17.0844289, 48.1198885 ], [ 17.0847652, 48.1198138 ], [ 17.0850053, 48.1202975 ], [ 17.0865849, 48.1199426 ], [ 17.0871241, 48.1211225 ], [ 17.0873728, 48.1217633 ], [ 17.0878555, 48.1216453 ], [ 17.0887119, 48.124015900000011 ], [ 17.0859868, 48.123973 ], [ 17.0853834, 48.1248667 ], [ 17.0880211, 48.125619399999984 ], [ 17.08856099649233, 48.125931792140676 ], [ 17.100645792617925, 48.125931792140676 ] ] ] } },
{ "type": "Feature", "properties": { "zone_id": "Z26" }, "geometry": { "type": "MultiPolygon", "coordinates": [ [ [ [ 17.07369633409434, 48.143917287493089 ], [ 17.100645792617925, 48.143917287493089 ], [ 17.100645792617925, 48.137838146951282 ], [ 17.0946986, 48.1386095 ], [ 17.0761432, 48.1426212 ], [ 17.07369633409434, 48.143150209302135 ], [ 17.07369633409434, 48.143917287493089 ] ] ], [ [ [ 17.100645792617925, 48.125931792140676 ], [ 17.08856099649233, 48.125931792140676 ], [ 17.0888263, 48.1260853 ], [ 17.0916399, 48.1284714 ], [ 17.0951213, 48.1323409 ], [ 17.0972868, 48.1339599 ], [ 17.0984133, 48.134547 ], [ 17.0994054, 48.1349363 ], [ 17.1003205, 48.1356309 ], [ 17.100645792617925, 48.135596464278848 ], [ 17.100645792617925, 48.125931792140676 ] ] ], [ [ [ 17.100645792617925, 48.136240523829201 ], [ 17.0999531, 48.1363528 ], [ 17.100645792617925, 48.136948986142919 ], [ 17.100645792617925, 48.136240523829201 ] ] ] ] } },
{ "type": "Feature", "properties": { "zone_id": "Z27" }, "geometry": { "type": "Polygon", "coordinates": [ [ [ 17.07369633409434, 48.143917287493089 ], [ 17.07369633409434, 48.161896483042902 ], [ 17.100645792617925, 48.161896483042902 ], [ 17.100645792617925, 48.143917287493089 ], [ 17.07369633409434, 48.143917287493089 ] ] ] } },
{ "type": "Feature", "properties": { "zone_id": "Z28" }, "geometry": { "type": "Polygon", "coordinates": [ [ [ 17.100645792617925, 48.161896483042902 ], [ 17.07369633409434, 48.161896483042902 ], [ 17.07369633409434, 48.179869379227014 ], [ 17.074804207608725, 48.179869379227014 ], [ 17.0749361, 48.1788454 ], [ 17.0756228, 48.1735511 ], [ 17.0763523, 48.1734939 ], [ 17.0787341, 48.1709038 ], [ 17.0814163, 48.1703314 ], [ 17.0814378, 48.17036 ], [ 17.0840342, 48.1718769 ], [ 17.0875532, 48.1725638 ], [ 17.0893342, 48.173451 ], [ 17.0893986, 48.1740663 ], [ 17.0917375, 48.1765275 ], [ 17.0948785, 48.175351 ], [ 17.0946986, 48.1743096 ], [ 17.0977456, 48.1718197 ], [ 17.100645792617925, 48.173490886053308 ], [ 17.100645792617925, 48.161896483042902 ] ] ] } },
{ "type": "Feature", "properties": { "zone_id": "Z29" }, "geometry": { "type": "Polygon", "coordinates": [ [ [ 17.07369633409434, 48.179869379227014 ], [ 17.07369633409434, 48.188338849091359 ], [ 17.0784766, 48.184840199999989 ], [ 17.0769961, 48.182064699999984 ], [ 17.0746357, 48.1811776 ], [ 17.074804207608725, 48.179869379227014 ], [ 17.07369633409434, 48.179869379227014 ] ] ] } },
{ "type": "Feature", "properties": { "zone_id": "Z30" }, "geometry": { "type": "Polygon", "coordinates": [ [ [ 17.07369633409434, 48.250376890181037 ], [ 17.0745306, 48.250460699999984 ], [ 17.0757169, 48.2502526 ], [ 17.0768066, 48.249927899999989 ], [ 17.0765988, 48.2494525 ], [ 17.0769872, 48.249445599999987 ], [ 17.0776029, 48.2493831 ], [ 17.0779896, 48.2491815 ], [ 17.0779509, 48.248949299999985 ], [ 17.0782937, 48.2488471 ], [ 17.078384, 48.248388 ], [ 17.0785673, 48.248183 ], [ 17.0796131, 48.2483035 ], [ 17.0796928, 48.2479658 ], [ 17.0795829, 48.2477011 ], [ 17.0791651, 48.2475587 ], [ 17.0790429, 48.2474728 ], [ 17.0785566, 48.2477618 ], [ 17.0781793, 48.2479665 ], [ 17.07609, 48.2487598 ], [ 17.0752112, 48.248831799999984 ], [ 17.0746084, 48.247848899999987 ], [ 17.07369633409434, 48.247796222892966 ], [ 17.07369633409434, 48.250376890181037 ] ] ] } },
{ "type": "Feature", "properties": { "zone_id": "Z31" }, "geometry": { "type": "Polygon", "coordinates": [ [ [ 17.124304218613606, 48.071937502933963 ], [ 17.1247145, 48.071633 ], [ 17.1222177, 48.070115 ], [ 17.1223299, 48.0700039 ], [ 17.1232486, 48.069900599999983 ], [ 17.1240865, 48.0700141 ], [ 17.1251654, 48.068979299999988 ], [ 17.1246174, 48.0686953 ], [ 17.125065, 48.0681194 ], [ 17.124821, 48.0679203 ], [ 17.1235688, 48.0680425 ], [ 17.1233247, 48.0679925 ], [ 17.1204088, 48.0660802 ], [ 17.1193954, 48.0653411 ], [ 17.1193813, 48.065329799999986 ], [ 17.1192947, 48.0652606 ], [ 17.1192103, 48.065193199999989 ], [ 17.1199434, 48.064845 ], [ 17.1184918, 48.063684 ], [ 17.1186827, 48.0613067 ], [ 17.1187162, 48.0609981 ], [ 17.1189151, 48.060750699999986 ], [ 17.117503, 48.060044 ], [ 17.1170158, 48.059849 ], [ 17.1164625, 48.0595173 ], [ 17.1161326, 48.0593581 ], [ 17.1152035, 48.0599142 ], [ 17.1144507, 48.0593934 ], [ 17.1125449, 48.0605348 ], [ 17.1118807, 48.0601254 ], [ 17.1087868, 48.0625916 ], [ 17.1083432, 48.0623834 ], [ 17.1079264, 48.0624223 ], [ 17.1071235, 48.0626685 ], [ 17.1068242, 48.0629086 ], [ 17.1068474, 48.0631788 ], [ 17.1054079, 48.064188 ], [ 17.1060865, 48.0647971 ], [ 17.1057782, 48.0650281 ], [ 17.1066144, 48.065671 ], [ 17.1068681, 48.0658669 ], [ 17.106765, 48.0659337 ], [ 17.1073133, 48.066363 ], [ 17.1069521, 48.0664563 ], [ 17.1063378, 48.06595080000001 ], [ 17.1061638, 48.0660427 ], [ 17.1067762, 48.0665304 ], [ 17.1036668, 48.0674859 ], [ 17.1044554, 48.068246 ], [ 17.1061269, 48.0676491 ], [ 17.1066437, 48.0674678 ], [ 17.1069239, 48.067824 ], [ 17.1063755, 48.0683469 ], [ 17.1067054, 48.068494 ], [ 17.1058819, 48.0692867 ], [ 17.1066447, 48.0696432 ], [ 17.1076438, 48.0686806 ], [ 17.1077975, 48.0688258 ], [ 17.1126859, 48.067299 ], [ 17.1148043, 48.0692931 ], [ 17.116225, 48.0689772 ], [ 17.1165504, 48.0695169 ], [ 17.1172949, 48.0705182 ], [ 17.1180068, 48.0713186 ], [ 17.118475595981234, 48.071937502933963 ], [ 17.124304218613606, 48.071937502933963 ] ] ] } },
{ "type": "Feature", "properties": { "zone_id": "Z32" }, "geometry": { "type": "MultiPolygon", "coordinates": [ [ [ [ 17.127595251141511, 48.086790091610858 ], [ 17.1268809, 48.0863216 ], [ 17.1241611, 48.0859024 ], [ 17.122076758208451, 48.089941900292168 ], [ 17.127386527740001, 48.089941900292168 ], [ 17.127595251141511, 48.08975808312497 ], [ 17.127595251141511, 48.086790091610858 ] ] ], [ [ [ 17.118475595981234, 48.071937502933963 ], [ 17.1192236, 48.072925 ], [ 17.1202717, 48.0727027 ], [ 17.1211004, 48.072574899999985 ], [ 17.123885, 48.0720405 ], [ 17.1242669, 48.0719652 ], [ 17.124304218613606, 48.071937502933963 ], [ 17.118475595981234, 48.071937502933963 ] ] ] ] } },
{ "type": "Feature", "properties": { "zone_id": "Z33" }, "geometry": { "type": "Polygon", "coordinates": [ [ [ 17.127595251141511, 48.095138250059506 ], [ 17.1258718, 48.0950748 ], [ 17.1252564, 48.0956897 ], [ 17.1249828, 48.098217 ], [ 17.1245635, 48.0977481 ], [ 17.1228334, 48.097833099999988 ], [ 17.1227872, 48.0982204 ], [ 17.1215207, 48.098213 ], [ 17.1211463, 48.0954372 ], [ 17.127386527740001, 48.089941900292168 ], [ 17.122076758208451, 48.089941900292168 ], [ 17.1215046, 48.0910507 ], [ 17.1132928, 48.0914422 ], [ 17.1096021, 48.0900555 ], [ 17.1082288, 48.0900877 ], [ 17.1076119, 48.0906431 ], [ 17.1075368, 48.0921266 ], [ 17.1025065, 48.0922122 ], [ 17.1014096, 48.0938782 ], [ 17.1021509, 48.0954515 ], [ 17.1010716, 48.0964216 ], [ 17.100645792617925, 48.096988852488124 ], [ 17.100645792617925, 48.10793999655111 ], [ 17.127595251141511, 48.10793999655111 ], [ 17.127595251141511, 48.107503527294256 ], [ 17.1272839, 48.107099099999985 ], [ 17.127595251141511, 48.106667661716308 ], [ 17.127595251141511, 48.101024416071901 ], [ 17.1241333, 48.0993283 ], [ 17.1258857, 48.0992176 ], [ 17.1258791, 48.0990477 ], [ 17.1260849, 48.0990432 ], [ 17.1260828, 48.0988788 ], [ 17.127595251141511, 48.098770670975902 ], [ 17.127595251141511, 48.095138250059506 ] ] ] } },
{ "type": "Feature", "properties": { "zone_id": "Z34" }, "geometry": { "type": "Polygon", "coordinates": [ [ [ 17.100645792617925, 48.10793999655111 ], [ 17.100645792617925, 48.125931792140676 ], [ 17.127595251141511, 48.125931792140676 ], [ 17.127595251141511, 48.10793999655111 ], [ 17.100645792617925, 48.10793999655111 ] ] ] } },
{ "type": "Feature", "properties": { "zone_id": "Z35" }, "geometry": { "type": "Polygon", "coordinates": [ [ [ 17.100645792617925, 48.143917287493089 ], [ 17.127595251141511, 48.143917287493089 ], [ 17.127595251141511, 48.125931792140676 ], [ 17.100645792617925, 48.125931792140676 ], [ 17.100645792617925, 48.135596464278848 ], [ 17.1011395, 48.1355442 ], [ 17.1017836, 48.1360561 ], [ 17.100645792617925, 48.136240523829201 ], [ 17.100645792617925, 48.136948986142919 ], [ 17.1015436, 48.1377217 ], [ 17.100645792617925, 48.137838146951282 ], [ 17.100645792617925, 48.143917287493089 ] ] ] } },
{ "type": "Feature", "properties": { "zone_id": "Z36" }, "geometry": { "type": "Polygon", "coordinates": [ [ [ 17.100645792617925, 48.143917287493089 ], [ 17.100645792617925, 48.161896483042902 ], [ 17.127595251141511, 48.161896483042902 ], [ 17.127595251141511, 48.143917287493089 ], [ 17.100645792617925, 48.143917287493089 ] ] ] } },
{ "type": "Feature", "properties": { "zone_id": "Z37" }, "geometry": { "type": "Polygon", "coordinates": [ [ [ 17.127595251141511, 48.179869379227014 ], [ 17.127595251141511, 48.161896483042902 ], [ 17.100645792617925, 48.161896483042902 ], [ 17.100645792617925, 48.173490886053308 ], [ 17.1021659, 48.1743668 ], [ 17.1049381, 48.1762454 ], [ 17.1082384, 48.1744097 ], [ 17.1113934, 48.1752906 ], [ 17.1123643, 48.1765507 ], [ 17.1101267, 48.1790601 ], [ 17.110213997280141, 48.179869379227014 ], [ 17.127595251141511, 48.179869379227014 ] ] ] } },
{ "type": "Feature", "properties": { "zone_id": "Z38" }, "geometry": { "type": "Polygon", "coordinates": [ [ [ 17.127595251141511, 48.197835976484626 ], [ 17.127595251141511, 48.179869379227014 ], [ 17.110213997280141, 48.179869379227014 ], [ 17.1104487, 48.1820451 ], [ 17.1177871, 48.182408 ], [ 17.1178204, 48.1841293 ], [ 17.1177172, 48.184784099999987 ], [ 17.1161778, 48.187401 ], [ 17.1151907, 48.1885597 ], [ 17.1134526, 48.1907484 ], [ 17.1187382, 48.193261899999989 ], [ 17.1202497, 48.1939547 ], [ 17.1233017, 48.193595 ], [ 17.1272928, 48.1971852 ], [ 17.127326800454409, 48.197835976484626 ], [ 17.127595251141511, 48.197835976484626 ] ] ] } },
{ "type": "Feature", "properties": { "zone_id": "Z39" }, "geometry": { "type": "Polygon", "coordinates": [ [ [ 17.127595251141511, 48.197835976484626 ], [ 17.127326800454409, 48.197835976484626 ], [ 17.127443, 48.20006 ], [ 17.1225292, 48.20385 ], [ 17.1214993, 48.2057091 ], [ 17.1232588, 48.2078255 ], [ 17.123297, 48.2078277 ], [ 17.1260056, 48.2079829 ], [ 17.127595251141511, 48.205897530661041 ], [ 17.127595251141511, 48.197835976484626 ] ] ] } },
{ "type": "Feature", "properties": { "zone_id": "Z40" }, "geometry": { "type": "Polygon", "coordinates": [ [ [ 17.1545447096651, 48.053926804048949 ], [ 17.1545447096651, 48.043870887621203 ], [ 17.1543576, 48.0440513 ], [ 17.1537958, 48.0443766 ], [ 17.1523367, 48.0433652 ], [ 17.1503224, 48.0447173 ], [ 17.1516688, 48.045612 ], [ 17.1493326, 48.0469085 ], [ 17.1453667, 48.0491869 ], [ 17.1431528, 48.0512118 ], [ 17.1406637, 48.049748699999988 ], [ 17.1397253, 48.0485902 ], [ 17.1383708, 48.0489538 ], [ 17.1376175, 48.0501287 ], [ 17.1380482, 48.051059 ], [ 17.1369663, 48.0518328 ], [ 17.1365837, 48.0516303 ], [ 17.1357284, 48.0523593 ], [ 17.1370978, 48.0531416 ], [ 17.1381071, 48.0524327 ], [ 17.1405085, 48.0537124 ], [ 17.140343278359907, 48.053926804048949 ], [ 17.1545447096651, 48.053926804048949 ] ] ] } },
{ "type": "Feature", "properties": { "zone_id": "Z41" }, "geometry": { "type": "Polygon", "coordinates": [ [ [ 17.1545447096651, 48.053926804048949 ], [ 17.140343278359907, 48.053926804048949 ], [ 17.1392238, 48.0553795 ], [ 17.1367674, 48.0597283 ], [ 17.1398891, 48.0620189 ], [ 17.1387647, 48.0626515 ], [ 17.1395095, 48.063346 ], [ 17.1416804, 48.0627306 ], [ 17.1422249, 48.060584199999987 ], [ 17.1438957, 48.060521899999983 ], [ 17.1439494, 48.0598621 ], [ 17.1450108, 48.0597883 ], [ 17.1459852, 48.05976 ], [ 17.1462433, 48.0581508 ], [ 17.1463017, 48.058093499999984 ], [ 17.1464127, 48.0579846 ], [ 17.1469186, 48.057816699999989 ], [ 17.1474695, 48.0578627 ], [ 17.1490217, 48.057957 ], [ 17.1540178, 48.0585587 ], [ 17.1545447096651, 48.057543062968271 ], [ 17.1545447096651, 48.053926804048949 ] ] ] } },
{ "type": "Feature", "properties": { "zone_id": "Z42" }, "geometry": { "type": "Polygon", "coordinates": [ [ [ 17.127595251141511, 48.08975808312497 ], [ 17.1295269, 48.088056899999984 ], [ 17.127595251141511, 48.086790091610858 ], [ 17.127595251141511, 48.08975808312497 ] ] ] } },
{ "type": "Feature", "properties": { "zone_id": "Z43" }, "geometry": { "type": "MultiPolygon", "coordinates": [ [ [ [ 17.127595251141511, 48.098770670975902 ], [ 17.1279795, 48.0987432 ], [ 17.1287289, 48.098316299999986 ], [ 17.1296328, 48.098343 ], [ 17.1297348, 48.0991981 ], [ 17.1305572, 48.1000003 ], [ 17.1314949, 48.0997232 ], [ 17.1308907, 48.0977585 ], [ 17.1329169, 48.0953661 ], [ 17.1329994, 48.093036699999985 ], [ 17.1281319, 48.093121 ], [ 17.1280638, 48.0951555 ], [ 17.127595251141511, 48.095138250059506 ], [ 17.127595251141511, 48.098770670975902 ] ] ], [ [ [ 17.127595251141511, 48.106667661716308 ], [ 17.1306039, 48.1024984 ], [ 17.127595251141511, 48.101024416071901 ], [ 17.127595251141511, 48.106667661716308 ] ] ], [ [ [ 17.127595251141511, 48.10793999655111 ], [ 17.127931272757781, 48.10793999655111 ], [ 17.127595251141511, 48.107503527294256 ], [ 17.127595251141511, 48.10793999655111 ] ] ] ] } },
{ "type": "Feature", "properties": { "zone_id": "Z44" }, "geometry": { "type": "MultiPolygon", "coordinates": [ [ [ [ 17.1545447096651, 48.125931792140676 ], [ 17.1545447096651, 48.118676719784581 ], [ 17.1531064, 48.1195755 ], [ 17.1504671, 48.1175557 ], [ 17.146712, 48.1189022 ], [ 17.1471858, 48.1200043 ], [ 17.1487934, 48.1237438 ], [ 17.147633481148446, 48.125931792140676 ], [ 17.1545447096651, 48.125931792140676 ] ] ], [ [ [ 17.127595251141511, 48.10793999655111 ], [ 17.127595251141511, 48.125931792140676 ], [ 17.13833516422682, 48.125931792140676 ], [ 17.1375925, 48.1195755 ], [ 17.134331, 48.116252099999983 ], [ 17.127931272757781, 48.10793999655111 ], [ 17.127595251141511, 48.10793999655111 ] ] ] ] } },
{ "type": "Feature", "properties": { "zone_id": "Z45" }, "geometry": { "type": "Polygon", "coordinates": [ [ [ 17.127595251141511, 48.125931792140676 ], [ 17.127595251141511, 48.143917287493089 ], [ 17.1545447096651, 48.143917287493089 ], [ 17.1545447096651, 48.125931792140676 ], [ 17.147633481148446, 48.125931792140676 ], [ 17.1434934, 48.1337406 ], [ 17.1363694, 48.1311342 ], [ 17.1384823, 48.127191 ], [ 17.13833516422682, 48.125931792140676 ], [ 17.127595251141511, 48.125931792140676 ] ] ] } },
{ "type": "Feature", "properties": { "zone_id": "Z46" }, "geometry": { "type": "Polygon", "coordinates": [ [ [ 17.127595251141511, 48.143917287493089 ], [ 17.127595251141511, 48.161896483042902 ], [ 17.1545447096651, 48.161896483042902 ], [ 17.1545447096651, 48.143917287493089 ], [ 17.127595251141511, 48.143917287493089 ] ] ] } },
{ "type": "Feature", "properties": { "zone_id": "Z47" }, "geometry": { "type": "Polygon", "coordinates": [ [ [ 17.127595251141511, 48.161896483042902 ], [ 17.127595251141511, 48.179869379227014 ], [ 17.1545447096651, 48.179869379227014 ], [ 17.1545447096651, 48.161896483042902 ], [ 17.127595251141511, 48.161896483042902 ] ] ] } },
{ "type": "Feature", "properties": { "zone_id": "Z48" }, "geometry": { "type": "Polygon", "coordinates": [ [ [ 17.127595251141511, 48.179869379227014 ], [ 17.127595251141511, 48.197835976484626 ], [ 17.1545447096651, 48.197835976484626 ], [ 17.1545447096651, 48.179869379227014 ], [ 17.127595251141511, 48.179869379227014 ] ] ] } },
{ "type": "Feature", "properties": { "zone_id": "Z49" }, "geometry": { "type": "Polygon", "coordinates": [ [ [ 17.1545447096651, 48.215796275257262 ], [ 17.1545447096651, 48.197835976484626 ], [ 17.127595251141511, 48.197835976484626 ], [ 17.127595251141511, 48.205897530661041 ], [ 17.1280287, 48.205328899999984 ], [ 17.129503, 48.2056948 ], [ 17.1290953, 48.2085119 ], [ 17.1287734, 48.2085548 ], [ 17.1311338, 48.2093985 ], [ 17.1326669, 48.2089573 ], [ 17.1377856, 48.2128446 ], [ 17.1323998, 48.2153468 ], [ 17.132562992218279, 48.215796275257262 ], [ 17.138085642695014, 48.215796275257262 ], [ 17.1436007, 48.214317399999985 ], [ 17.1444804, 48.2145175 ], [ 17.142242439798359, 48.215796275257262 ], [ 17.1545447096651, 48.215796275257262 ] ] ] } },
{ "type": "Feature", "properties": { "zone_id": "Z50" }, "geometry": { "type": "MultiPolygon", "coordinates": [ [ [ [ 17.1545447096651, 48.215796275257262 ], [ 17.142242439798359, 48.215796275257262 ], [ 17.1364982, 48.2190784 ], [ 17.1392834, 48.2215991 ], [ 17.1431609, 48.224092799999987 ], [ 17.147978, 48.2230528 ], [ 17.1495874, 48.222481 ], [ 17.1545447096651, 48.222051071190108 ], [ 17.1545447096651, 48.215796275257262 ] ] ], [ [ [ 17.132562992218279, 48.215796275257262 ], [ 17.1330435, 48.2171197 ], [ 17.1330435, 48.217148299999984 ], [ 17.138085642695014, 48.215796275257262 ], [ 17.132562992218279, 48.215796275257262 ] ] ] ] } },
{ "type": "Feature", "properties": { "zone_id": "Z51" }, "geometry": { "type": "Polygon", "coordinates": [ [ [ 17.167059165481085, 48.035909803211922 ], [ 17.164887, 48.0338978 ], [ 17.162800673829722, 48.035909803211922 ], [ 17.167059165481085, 48.035909803211922 ] ] ] } },
{ "type": "Feature", "properties": { "zone_id": "Z52" }, "geometry": { "type": "Polygon", "coordinates": [ [ [ 17.1545447096651, 48.053926804048949 ], [ 17.159820003470529, 48.053926804048949 ], [ 17.1611027, 48.0522754 ], [ 17.1561268, 48.050567099999988 ], [ 17.1568107, 48.0500398 ], [ 17.1592239, 48.0477031 ], [ 17.1595858, 48.048081199999984 ], [ 17.1582594, 48.0490275 ], [ 17.1567693, 48.050707799999984 ], [ 17.1577585, 48.0508233 ], [ 17.1606123, 48.0499712 ], [ 17.1619218, 48.0479747 ], [ 17.1609092, 48.0475825 ], [ 17.1601171, 48.046691399999986 ], [ 17.1617746, 48.0444408 ], [ 17.1608027, 48.0433882 ], [ 17.1618638, 48.0424077 ], [ 17.1614974, 48.042233299999985 ], [ 17.162276, 48.041482 ], [ 17.161866, 48.041166 ], [ 17.1677918, 48.0365884 ], [ 17.167059165481085, 48.035909803211922 ], [ 17.162800673829722, 48.035909803211922 ], [ 17.1545447096651, 48.043870887621203 ], [ 17.1545447096651, 48.053926804048949 ] ] ] } },
{ "type": "Feature", "properties": { "zone_id": "Z53" }, "geometry": { "type": "Polygon", "coordinates": [ [ [ 17.1545447096651, 48.053926804048949 ], [ 17.1545447096651, 48.057543062968271 ], [ 17.1548901, 48.056877299999989 ], [ 17.1579136, 48.0563811 ], [ 17.159820003470529, 48.053926804048949 ], [ 17.1545447096651, 48.053926804048949 ] ] ] } },
{ "type": "Feature", "properties": { "zone_id": "Z54" }, "geometry": { "type": "Polygon", "coordinates": [ [ [ 17.181494168188685, 48.10793999655111 ], [ 17.181494168188685, 48.103230211237054 ], [ 17.1734268, 48.105607 ], [ 17.1681268, 48.1057646 ], [ 17.1608955, 48.1062805 ], [ 17.160238761191177, 48.10793999655111 ], [ 17.181494168188685, 48.10793999655111 ] ] ] } },
{ "type": "Feature", "properties": { "zone_id": "Z55" }, "geometry": { "type": "Polygon", "coordinates": [ [ [ 17.1545447096651, 48.125931792140676 ], [ 17.181494168188685, 48.125931792140676 ], [ 17.181494168188685, 48.10793999655111 ], [ 17.160238761191177, 48.10793999655111 ], [ 17.1590073, 48.1110516 ], [ 17.1605093, 48.1119399 ], [ 17.1629769, 48.1153209 ], [ 17.160593, 48.1169704 ], [ 17.158664, 48.1180427 ], [ 17.1567971, 48.1172692 ], [ 17.1545447096651, 48.118676719784581 ], [ 17.1545447096651, 48.125931792140676 ] ] ] } },
{ "type": "Feature", "properties": { "zone_id": "Z56" }, "geometry": { "type": "Polygon", "coordinates": [ [ [ 17.1545447096651, 48.125931792140676 ], [ 17.1545447096651, 48.143917287493089 ], [ 17.181494168188685, 48.143917287493089 ], [ 17.181494168188685, 48.125931792140676 ], [ 17.1545447096651, 48.125931792140676 ] ] ] } },
{ "type": "Feature", "properties": { "zone_id": "Z57" }, "geometry": { "type": "Polygon", "coordinates": [ [ [ 17.1545447096651, 48.143917287493089 ], [ 17.1545447096651, 48.161896483042902 ], [ 17.181494168188685, 48.161896483042902 ], [ 17.181494168188685, 48.143917287493089 ], [ 17.1545447096651, 48.143917287493089 ] ] ] } },
{ "type": "Feature", "properties": { "zone_id": "Z58" }, "geometry": { "type": "Polygon", "coordinates": [ [ [ 17.1545447096651, 48.161896483042902 ], [ 17.1545447096651, 48.179869379227014 ], [ 17.181494168188685, 48.179869379227014 ], [ 17.181494168188685, 48.161896483042902 ], [ 17.1545447096651, 48.161896483042902 ] ] ] } },
{ "type": "Feature", "properties": { "zone_id": "Z59" }, "geometry": { "type": "Polygon", "coordinates": [ [ [ 17.181494168188685, 48.179869379227014 ], [ 17.1545447096651, 48.179869379227014 ], [ 17.1545447096651, 48.197835976484626 ], [ 17.175738287451349, 48.197835976484626 ], [ 17.1753795, 48.1975285 ], [ 17.181494168188685, 48.197708394922067 ], [ 17.181494168188685, 48.179869379227014 ] ] ] } },
{ "type": "Feature", "properties": { "zone_id": "Z60" }, "geometry": { "type": "Polygon", "coordinates": [ [ [ 17.1545447096651, 48.197835976484626 ], [ 17.1545447096651, 48.215796275257262 ], [ 17.181494168188685, 48.215796275257262 ], [ 17.181494168188685, 48.213238825716843 ], [ 17.1788771, 48.2115148 ], [ 17.1754653, 48.212673 ], [ 17.1727616, 48.210871399999988 ], [ 17.1673114, 48.2134166 ], [ 17.1639425, 48.210170699999985 ], [ 17.1715815, 48.2040359 ], [ 17.174843, 48.2023197 ], [ 17.1741778, 48.2004605 ], [ 17.1769888, 48.1989444 ], [ 17.1770317, 48.1989444 ], [ 17.175738287451349, 48.197835976484626 ], [ 17.1545447096651, 48.197835976484626 ] ] ] } },
{ "type": "Feature", "properties": { "zone_id": "Z61" }, "geometry": { "type": "Polygon", "coordinates": [ [ [ 17.181494168188685, 48.215796275257262 ], [ 17.1545447096651, 48.215796275257262 ], [ 17.1545447096651, 48.222051071190108 ], [ 17.1635992, 48.2212658 ], [ 17.1759803, 48.2218234 ], [ 17.181494168188685, 48.223171844880646 ], [ 17.181494168188685, 48.215796275257262 ] ] ] } },
{ "type": "Feature", "properties": { "zone_id": "Z62" }, "geometry": { "type": "Polygon", "coordinates": [ [ [ 17.196256997573062, 48.035909803211922 ], [ 17.1970438, 48.0355718 ], [ 17.1972942, 48.0343956 ], [ 17.199073, 48.033876 ], [ 17.199675, 48.03427 ], [ 17.2002829, 48.0341188 ], [ 17.200389, 48.0340924 ], [ 17.2001865, 48.0335388 ], [ 17.2022258, 48.0330096 ], [ 17.2027688, 48.0329274 ], [ 17.2040695, 48.0320729 ], [ 17.2044996, 48.031249 ], [ 17.203678, 48.029342 ], [ 17.2025846, 48.0297656 ], [ 17.2022251, 48.0293297 ], [ 17.2017665, 48.0294869 ], [ 17.2011692, 48.0286768 ], [ 17.2011824, 48.0284053 ], [ 17.2010622, 48.0281977 ], [ 17.2007199, 48.027028799999989 ], [ 17.2005719, 48.026143 ], [ 17.2002517, 48.026228 ], [ 17.2001525, 48.0257017 ], [ 17.1996605, 48.0251092 ], [ 17.1999186, 48.0239486 ], [ 17.2004264, 48.0234244 ], [ 17.1996888, 48.023497 ], [ 17.199067, 48.0222747 ], [ 17.199051, 48.0222433 ], [ 17.1993652, 48.022186299999987 ], [ 17.1992242, 48.0217463 ], [ 17.1994562, 48.0213796 ], [ 17.1972701, 48.0178865 ], [ 17.1953886, 48.018239 ], [ 17.1968543, 48.0217497 ], [ 17.1955132, 48.0220762 ], [ 17.1919532, 48.0231194 ], [ 17.1936904, 48.0257455 ], [ 17.1916509, 48.026331399999982 ], [ 17.1921405, 48.0270574 ], [ 17.1923241, 48.0273297 ], [ 17.1926621, 48.027831 ], [ 17.1918011, 48.028066 ], [ 17.1919325, 48.0282525 ], [ 17.1914309, 48.0283799 ], [ 17.1911734, 48.0279727 ], [ 17.1911117, 48.0276678 ], [ 17.1909723, 48.0274579 ], [ 17.1893812, 48.027895 ], [ 17.1882714, 48.0282045 ], [ 17.1889525, 48.0290897 ], [ 17.1888011, 48.0293325 ], [ 17.1901642, 48.0314516 ], [ 17.1894407, 48.031649799999983 ], [ 17.1896929, 48.0320211 ], [ 17.1904063, 48.031841699999987 ], [ 17.191351, 48.0332847 ], [ 17.1923304, 48.033011899999984 ], [ 17.1924096, 48.0332602 ], [ 17.192868, 48.0339769 ], [ 17.1924927, 48.0340896 ], [ 17.1919821, 48.0342187 ], [ 17.1916596, 48.0343003 ], [ 17.1911499, 48.0341538 ], [ 17.1897039, 48.034556799999983 ], [ 17.1897277, 48.0349139 ], [ 17.1905214, 48.0348081 ], [ 17.1924086, 48.0342496 ], [ 17.1929332, 48.0339705 ], [ 17.1937245, 48.035321099999983 ], [ 17.1945631, 48.0351134 ], [ 17.1948189, 48.0351925 ], [ 17.1951973, 48.0350082 ], [ 17.1954809, 48.0354491 ], [ 17.195460582009083, 48.035909803211922 ], [ 17.196256997573062, 48.035909803211922 ] ] ] } },
{ "type": "Feature", "properties": { "zone_id": "Z63" }, "geometry": { "type": "Polygon", "coordinates": [ [ [ 17.195460582009083, 48.035909803211922 ], [ 17.19546, 48.035923 ], [ 17.196203, 48.035933 ], [ 17.196256997573062, 48.035909803211922 ], [ 17.195460582009083, 48.035909803211922 ] ] ] } },
{ "type": "Feature", "properties": { "zone_id": "Z64" }, "geometry": { "type": "Polygon", "coordinates": [ [ [ 17.181494168188685, 48.10793999655111 ], [ 17.201499123106839, 48.10793999655111 ], [ 17.2011716, 48.1068393 ], [ 17.189799, 48.106223199999988 ], [ 17.1900136, 48.1031998 ], [ 17.1818343, 48.10313 ], [ 17.181494168188685, 48.103230211237054 ], [ 17.181494168188685, 48.10793999655111 ] ] ] } },
{ "type": "Feature", "properties": { "zone_id": "Z65" }, "geometry": { "type": "Polygon", "coordinates": [ [ [ 17.181494168188685, 48.10793999655111 ], [ 17.181494168188685, 48.125931792140676 ], [ 17.20844362671227, 48.125931792140676 ], [ 17.20844362671227, 48.115440059850584 ], [ 17.2039849, 48.1162931 ], [ 17.201499123106839, 48.10793999655111 ], [ 17.181494168188685, 48.10793999655111 ] ] ] } },
{ "type": "Feature", "properties": { "zone_id": "Z66" }, "geometry": { "type": "Polygon", "coordinates": [ [ [ 17.181494168188685, 48.125931792140676 ], [ 17.181494168188685, 48.143917287493089 ], [ 17.20844362671227, 48.143917287493089 ], [ 17.20844362671227, 48.125931792140676 ], [ 17.181494168188685, 48.125931792140676 ] ] ] } },
{ "type": "Feature", "properties": { "zone_id": "Z67" }, "geometry": { "type": "Polygon", "coordinates": [ [ [ 17.181494168188685, 48.143917287493089 ], [ 17.181494168188685, 48.161896483042902 ], [ 17.20844362671227, 48.161896483042902 ], [ 17.20844362671227, 48.143917287493089 ], [ 17.181494168188685, 48.143917287493089 ] ] ] } },
{ "type": "Feature", "properties": { "zone_id": "Z68" }, "geometry": { "type": "Polygon", "coordinates": [ [ [ 17.181494168188685, 48.161896483042902 ], [ 17.181494168188685, 48.179869379227014 ], [ 17.20844362671227, 48.179869379227014 ], [ 17.20844362671227, 48.161896483042902 ], [ 17.181494168188685, 48.161896483042902 ] ] ] } },
{ "type": "Feature", "properties": { "zone_id": "Z69" }, "geometry": { "type": "Polygon", "coordinates": [ [ [ 17.20844362671227, 48.197835976484626 ], [ 17.20844362671227, 48.179869379227014 ], [ 17.181494168188685, 48.179869379227014 ], [ 17.181494168188685, 48.197708394922067 ], [ 17.185830706730307, 48.197835976484626 ], [ 17.20844362671227, 48.197835976484626 ] ] ] } },
{ "type": "Feature", "properties": { "zone_id": "Z70" }, "geometry": { "type": "MultiPolygon", "coordinates": [ [ [ [ 17.20844362671227, 48.197835976484626 ], [ 17.185830706730307, 48.197835976484626 ], [ 17.1865589, 48.1978574 ], [ 17.1970088, 48.2018192 ], [ 17.2014505, 48.2043505 ], [ 17.197438, 48.2083975 ], [ 17.2031886, 48.2105568 ], [ 17.2072441, 48.2109858 ], [ 17.20844362671227, 48.210536592578855 ], [ 17.20844362671227, 48.197835976484626 ] ] ], [ [ [ 17.181494168188685, 48.215796275257262 ], [ 17.197132214017767, 48.215796275257262 ], [ 17.1976955, 48.215404 ], [ 17.1931035, 48.2135738 ], [ 17.1952493, 48.2115577 ], [ 17.1921808, 48.2087979 ], [ 17.1853144, 48.2052372 ], [ 17.1819401, 48.2078909 ], [ 17.1815537, 48.2081947 ], [ 17.1855933, 48.2111716 ], [ 17.1843273, 48.2119581 ], [ 17.1859796, 48.2136024 ], [ 17.1826322, 48.2139885 ], [ 17.181494168188685, 48.213238825716843 ], [ 17.181494168188685, 48.215796275257262 ] ] ] ] } },
{ "type": "Feature", "properties": { "zone_id": "Z71" }, "geometry": { "type": "Polygon", "coordinates": [ [ [ 17.181494168188685, 48.215796275257262 ], [ 17.181494168188685, 48.223171844880646 ], [ 17.191515, 48.225622399999985 ], [ 17.1967379, 48.220432 ], [ 17.1943695, 48.2177202 ], [ 17.197132214017767, 48.215796275257262 ], [ 17.181494168188685, 48.215796275257262 ] ] ] } },
{ "type": "Feature", "properties": { "zone_id": "Z72" }, "geometry": { "type": "Polygon", "coordinates": [ [ [ 17.20844362671227, 48.125931792140676 ], [ 17.22315600027552, 48.125931792140676 ], [ 17.2251602, 48.1214686 ], [ 17.2246034, 48.1189022 ], [ 17.2210592, 48.117169899999986 ], [ 17.2170807, 48.1155013 ], [ 17.2194639, 48.113378 ], [ 17.2195598, 48.1132554 ], [ 17.2196542, 48.1131748 ], [ 17.2200791, 48.1127993 ], [ 17.220555, 48.1123869 ], [ 17.2208601, 48.111578599999987 ], [ 17.2179032, 48.1100452 ], [ 17.2126407, 48.1147443 ], [ 17.2125671, 48.1149181 ], [ 17.2125453, 48.1153253 ], [ 17.2117717, 48.116796399999984 ], [ 17.2106637, 48.11591270000001 ], [ 17.210197, 48.1161347 ], [ 17.2093095, 48.115274399999983 ], [ 17.20844362671227, 48.115440059850584 ], [ 17.20844362671227, 48.125931792140676 ] ] ] } },
{ "type": "Feature", "properties": { "zone_id": "Z73" }, "geometry": { "type": "Polygon", "coordinates": [ [ [ 17.20844362671227, 48.125931792140676 ], [ 17.20844362671227, 48.143917287493089 ], [ 17.218539790878271, 48.143917287493089 ], [ 17.2185309, 48.1438787 ], [ 17.214647, 48.1436783 ], [ 17.2164709, 48.1405139 ], [ 17.2173721, 48.1388099 ], [ 17.22315600027552, 48.125931792140676 ], [ 17.20844362671227, 48.125931792140676 ] ] ] } },
{ "type": "Feature", "properties": { "zone_id": "Z74" }, "geometry": { "type": "Polygon", "coordinates": [ [ [ 17.235393085235856, 48.154018385070728 ], [ 17.2304434, 48.1547378 ], [ 17.2219973, 48.1588043 ], [ 17.2200867, 48.1538008 ], [ 17.2201187, 48.1506793 ], [ 17.2242614, 48.1470337 ], [ 17.2193492, 48.1474301 ], [ 17.218539790878271, 48.143917287493089 ], [ 17.20844362671227, 48.143917287493089 ], [ 17.20844362671227, 48.161896483042902 ], [ 17.232229024439405, 48.161896483042902 ], [ 17.235393085235856, 48.15956012454491 ], [ 17.235393085235856, 48.154018385070728 ] ] ] } },
{ "type": "Feature", "properties": { "zone_id": "Z75" }, "geometry": { "type": "Polygon", "coordinates": [ [ [ 17.20844362671227, 48.161896483042902 ], [ 17.20844362671227, 48.179869379227014 ], [ 17.233557797731791, 48.179869379227014 ], [ 17.2209985, 48.1701883 ], [ 17.232229024439405, 48.161896483042902 ], [ 17.20844362671227, 48.161896483042902 ] ] ] } },
{ "type": "Feature", "properties": { "zone_id": "Z76" }, "geometry": { "type": "Polygon", "coordinates": [ [ [ 17.20844362671227, 48.179869379227014 ], [ 17.20844362671227, 48.197835976484626 ], [ 17.211525060385728, 48.197835976484626 ], [ 17.211748, 48.1971745 ], [ 17.2122126, 48.1967763 ], [ 17.2128599, 48.1969201 ], [ 17.2132541, 48.1963638 ], [ 17.2180577, 48.196794299999986 ], [ 17.2198291, 48.191764 ], [ 17.2208912, 48.185312299999985 ], [ 17.2353108, 48.1812205 ], [ 17.233557797731791, 48.179869379227014 ], [ 17.20844362671227, 48.179869379227014 ] ] ] } },
{ "type": "Feature", "properties": { "zone_id": "Z77" }, "geometry": { "type": "Polygon", "coordinates": [ [ [ 17.20844362671227, 48.197835976484626 ], [ 17.20844362671227, 48.210536592578855 ], [ 17.2120936, 48.209169699999983 ], [ 17.216707, 48.2107856 ], [ 17.2199256, 48.2099848 ], [ 17.2215135, 48.2059093 ], [ 17.2212417, 48.2054604 ], [ 17.2193902, 48.202846 ], [ 17.2165882, 48.2029667 ], [ 17.216267, 48.2028874 ], [ 17.2146019, 48.2024833 ], [ 17.2105736, 48.2014149 ], [ 17.2108874, 48.200212099999987 ], [ 17.2115524, 48.1993667 ], [ 17.2117745, 48.1984407 ], [ 17.211405, 48.1981922 ], [ 17.211525060385728, 48.197835976484626 ], [ 17.20844362671227, 48.197835976484626 ] ] ] } }
]
}
